{"type": "FeatureCollection", "features": [ {"type": "Feature", "properties": {"norad_id": 34972, "name": "COSMOS 2251 DEB", "group": "cosmos-2251-debris", "lat": 13.050698673808993, "lon": -118.17310920716984, "alt_km": 640.9797335519688, "timestamp": "2025-12-04T15:47:54.494856+00:00", "meta": {"OBJECT_NAME": "COSMOS 2251 DEB", "OBJECT_ID": "1993-036AFB", "EPOCH": "2025-12-03T06:34:34.182336", "MEAN_MOTION": 14.72590746, "ECCENTRICITY": 0.0034486, "INCLINATION": 73.9887, "RA_OF_ASC_NODE": 68.345, "ARG_OF_PERICENTER": 228.4328, "MEAN_ANOMALY": 162.7226, "EPHEMERIS_TYPE": 0, "CLASSIFICATION_TYPE": "U", "NORAD_CAT_ID": 34972, "ELEMENT_SET_NO": 999, "REV_AT_EPOCH": 87511, "BSTAR": 0.0021523, "MEAN_MOTION_DOT": 0.0001382, "MEAN_MOTION_DDOT": 0}, "tle": {"line1": "1 34972U 93036AFB 25337.27400674  .00013820  00000+0  21523-2 0  9994", "line2": "2 34972  73.9887  68.3450 0034486 228.4328 162.7226 14.72590746875112"}}, "geometry": {"type": "Point", "coordinates": [-118.17310920716984, 13.050698673808993]}}, {"type": "Feature", "properties": {"norad_id": 34976, "name": "COSMOS 2251 DEB", "group": "cosmos-2251-debris", "lat": 24.39486333609051, "lon": 134.60906752901545, "alt_km": 667.1674469964, "timestamp": "2025-12-04T15:47:54.494867+00:00", "meta": {"OBJECT_NAME": "COSMOS 2251 DEB", "OBJECT_ID": "1993-036AFF", "EPOCH": "2025-12-04T05:24:30.233952", "MEAN_MOTION": 14.76276961, "ECCENTRICITY": 0.00478109, "INCLINATION": 74.0569, "RA_OF_ASC_NODE": 322.9043, "ARG_OF_PERICENTER": 11.4393, "MEAN_ANOMALY": 2.8497, "EPHEMERIS_TYPE": 0, "CLASSIFICATION_TYPE": "U", "NORAD_CAT_ID": 34976, "ELEMENT_SET_NO": 999, "REV_AT_EPOCH": 88148, "BSTAR": 0.0030483512, "MEAN_MOTION_DOT": 0.00021562, "MEAN_MOTION_DDOT": 0}, "tle": {"line1": "1 34976U 93036AFF 25338.22534993  .00021562  00000+0  30484-2 0  9994", "line2": "2 34976  74.0569 322.9043 0047810  11.4393   2.8497 14.76276961881484"}}, "geometry": {"type": "Point", "coordinates": [134.60906752901545, 24.39486333609051]}}, {"type": "Feature", "properties": {"norad_id": 34979, "name": "COSMOS 2251 DEB", "group": "cosmos-2251-debris", "lat": 54.78932162555771, "lon": 79.23523592314905, "alt_km": 643.2218775590736, "timestamp": "2025-12-04T15:47:54.494877+00:00", "meta": {"OBJECT_NAME": "COSMOS 2251 DEB", "OBJECT_ID": "1993-036AFJ", "EPOCH": "2025-12-04T05:30:45.131328", "MEAN_MOTION": 14.79068342, "ECCENTRICITY": 0.0049249, "INCLINATION": 74.0403, "RA_OF_ASC_NODE": 284.0014, "ARG_OF_PERICENTER": 3.792, "MEAN_ANOMALY": 356.3618, "EPHEMERIS_TYPE": 0, "CLASSIFICATION_TYPE": "U", "NORAD_CAT_ID": 34979, "ELEMENT_SET_NO": 999, "REV_AT_EPOCH": 88094, "BSTAR": 0.0032151669, "MEAN_MOTION_DOT": 0.00024338, "MEAN_MOTION_DDOT": 0}, "tle": {"line1": "1 34979U 93036AFJ 25338.22968902  .00024338  00000+0  32152-2 0  9996", "line2": "2 34979  74.0403 284.0014 0049249   3.7920 356.3618 14.79068342880945"}}, "geometry": {"type": "Point", "coordinates": [79.23523592314905, 54.78932162555771]}}, {"type": "Feature", "properties": {"norad_id": 34990, "name": "COSMOS 2251 DEB", "group": "cosmos-2251-debris", "lat": -35.1331414608055, "lon": 97.93192353151082, "alt_km": 761.0915435632523, "timestamp": "2025-12-04T15:47:54.494887+00:00", "meta": {"OBJECT_NAME": "COSMOS 2251 DEB", "OBJECT_ID": "1993-036AFN", "EPOCH": "2025-11-30T02:35:36.793536", "MEAN_MOTION": 14.42317714, "ECCENTRICITY": 0.00161518, "INCLINATION": 74.0452, "RA_OF_ASC_NODE": 274.7497, "ARG_OF_PERICENTER": 338.715, "MEAN_ANOMALY": 21.3332, "EPHEMERIS_TYPE": 0, "CLASSIFICATION_TYPE": "U", "NORAD_CAT_ID": 34990, "ELEMENT_SET_NO": 999, "REV_AT_EPOCH": 87164, "BSTAR": 0.00051741405, "MEAN_MOTION_DOT": 1.685e-05, "MEAN_MOTION_DDOT": 0}, "tle": {"line1": "1 34990U 93036AFN 25334.10806474  .00001685  00000+0  51741-3 0  9993", "line2": "2 34990  74.0452 274.7497 0016151 338.7150  21.3332 14.42317714871644"}}, "geometry": {"type": "Point", "coordinates": [97.93192353151082, -35.1331414608055]}}, {"type": "Feature", "properties": {"norad_id": 34997, "name": "COSMOS 2251 DEB", "group": "cosmos-2251-debris", "lat": -63.69117250813391, "lon": -69.38149343764691, "alt_km": 679.2322061172163, "timestamp": "2025-12-04T15:47:54.494897+00:00", "meta": {"OBJECT_NAME": "COSMOS 2251 DEB", "OBJECT_ID": "1993-036AFV", "EPOCH": "2025-11-29T18:09:59.976288", "MEAN_MOTION": 14.45289096, "ECCENTRICITY": 0.00981723, "INCLINATION": 73.8805, "RA_OF_ASC_NODE": 335.6343, "ARG_OF_PERICENTER": 312.7593, "MEAN_ANOMALY": 46.5333, "EPHEMERIS_TYPE": 0, "CLASSIFICATION_TYPE": "U", "NORAD_CAT_ID": 34997, "ELEMENT_SET_NO": 999, "REV_AT_EPOCH": 70559, "BSTAR": 0.0014679127, "MEAN_MOTION_DOT": 5.442e-05, "MEAN_MOTION_DDOT": 0}, "tle": {"line1": "1 34997U 93036AFV 25333.75694417  .00005442  00000+0  14679-2 0  9995", "line2": "2 34997  73.8805 335.6343 0098172 312.7593  46.5333 14.45289096705597"}}, "geometry": {"type": "Point", "coordinates": [-69.38149343764691, -63.69117250813391]}}, {"type": "Feature", "properties": {"norad_id": 34998, "name": "COSMOS 2251 DEB", "group": "cosmos-2251-debris", "lat": 57.46327881468441, "lon": -158.12466768535262, "alt_km": 724.8014331057802, "timestamp": "2025-12-04T15:47:54.494908+00:00", "meta": {"OBJECT_NAME": "COSMOS 2251 DEB", "OBJECT_ID": "1993-036AFW", "EPOCH": "2025-12-03T00:27:28.459296", "MEAN_MOTION": 14.49214927, "ECCENTRICITY": 0.00207984, "INCLINATION": 74.0093, "RA_OF_ASC_NODE": 178.2428, "ARG_OF_PERICENTER": 324.9753, "MEAN_ANOMALY": 187.6358, "EPHEMERIS_TYPE": 0, "CLASSIFICATION_TYPE": "U", "NORAD_CAT_ID": 34998, "ELEMENT_SET_NO": 999, "REV_AT_EPOCH": 87279, "BSTAR": 0.00066768373, "MEAN_MOTION_DOT": 2.523e-05, "MEAN_MOTION_DDOT": 0}, "tle": {"line1": "1 34998U 93036AFW 25337.01907939  .00002523  00000+0  66768-3 0  9999", "line2": "2 34998  74.0093 178.2428 0020798 324.9753 187.6358 14.49214927872793"}}, "geometry": {"type": "Point", "coordinates": [-158.12466768535262, 57.46327881468441]}}, {"type": "Feature", "properties": {"norad_id": 35000, "name": "COSMOS 2251 DEB", "group": "cosmos-2251-debris", "lat": 52.12720424922913, "lon": 14.845648688910934, "alt_km": 348.3410728815679, "timestamp": "2025-12-04T15:47:54.494918+00:00", "meta": {"OBJECT_NAME": "COSMOS 2251 DEB", "OBJECT_ID": "1993-036AFY", "EPOCH": "2025-12-03T17:51:09.139392", "MEAN_MOTION": 15.68798359, "ECCENTRICITY": 0.00113057, "INCLINATION": 74.0037, "RA_OF_ASC_NODE": 218.5611, "ARG_OF_PERICENTER": 183.2738, "MEAN_ANOMALY": 176.8412, "EPHEMERIS_TYPE": 0, "CLASSIFICATION_TYPE": "U", "NORAD_CAT_ID": 35000, "ELEMENT_SET_NO": 999, "REV_AT_EPOCH": 88373, "BSTAR": 0.0077546644, "MEAN_MOTION_DOT": 0.0098301, "MEAN_MOTION_DDOT": 0}, "tle": {"line1": "1 35000U 93036AFY 25337.74385578  .00983010  00000+0  77547-2 0  9998", "line2": "2 35000  74.0037 218.5611 0011305 183.2738 176.8412 15.68798359883736"}}, "geometry": {"type": "Point", "coordinates": [14.845648688910934, 52.12720424922913]}}, {"type": "Feature", "properties": {"norad_id": 35012, "name": "COSMOS 2251 DEB", "group": "cosmos-2251-debris", "lat": 36.42733202352652, "lon": -65.38973792468255, "alt_km": 771.8547295566132, "timestamp": "2025-12-04T15:47:54.494928+00:00", "meta": {"OBJECT_NAME": "COSMOS 2251 DEB", "OBJECT_ID": "1993-036AFZ", "EPOCH": "2025-11-29T10:33:51.837120", "MEAN_MOTION": 14.45521065, "ECCENTRICITY": 0.0081636, "INCLINATION": 74.0181, "RA_OF_ASC_NODE": 136.5568, "ARG_OF_PERICENTER": 279.5143, "MEAN_ANOMALY": 79.6796, "EPHEMERIS_TYPE": 0, "CLASSIFICATION_TYPE": "U", "NORAD_CAT_ID": 35012, "ELEMENT_SET_NO": 999, "REV_AT_EPOCH": 87369, "BSTAR": 0.00015191388, "MEAN_MOTION_DOT": 5.29e-06, "MEAN_MOTION_DDOT": 0}, "tle": {"line1": "1 35012U 93036AFZ 25333.44018330  .00000529  00000+0  15191-3 0  9996", "line2": "2 35012  74.0181 136.5568 0081636 279.5143  79.6796 14.45521065873693"}}, "geometry": {"type": "Point", "coordinates": [-65.38973792468255, 36.42733202352652]}}, {"type": "Feature", "properties": {"norad_id": 35014, "name": "COSMOS 2251 DEB", "group": "cosmos-2251-debris", "lat": 63.9720863096887, "lon": -156.61602196691948, "alt_km": 641.7161919501177, "timestamp": "2025-12-04T15:47:54.494939+00:00", "meta": {"OBJECT_NAME": "COSMOS 2251 DEB", "OBJECT_ID": "1993-036AGB", "EPOCH": "2025-11-29T00:10:14.201184", "MEAN_MOTION": 14.74716562, "ECCENTRICITY": 0.00081798, "INCLINATION": 73.9988, "RA_OF_ASC_NODE": 70.4329, "ARG_OF_PERICENTER": 241.0886, "MEAN_ANOMALY": 118.9467, "EPHEMERIS_TYPE": 0, "CLASSIFICATION_TYPE": "U", "NORAD_CAT_ID": 35014, "ELEMENT_SET_NO": 999, "REV_AT_EPOCH": 71134, "BSTAR": 0.0017863262, "MEAN_MOTION_DOT": 0.00011934, "MEAN_MOTION_DDOT": 0}, "tle": {"line1": "1 35014U 93036AGB 25333.00710881  .00011934  00000+0  17863-2 0  9999", "line2": "2 35014  73.9988  70.4329 0008179 241.0886 118.9467 14.74716562711343"}}, "geometry": {"type": "Point", "coordinates": [-156.61602196691948, 63.9720863096887]}}, {"type": "Feature", "properties": {"norad_id": 35015, "name": "COSMOS 2251 DEB", "group": "cosmos-2251-debris", "lat": -57.347901537982914, "lon": 96.60706298902699, "alt_km": 769.0430561775065, "timestamp": "2025-12-04T15:47:54.494949+00:00", "meta": {"OBJECT_NAME": "COSMOS 2251 DEB", "OBJECT_ID": "1993-036AGC", "EPOCH": "2025-12-01T12:49:23.800800", "MEAN_MOTION": 14.46768601, "ECCENTRICITY": 0.00742089, "INCLINATION": 73.9481, "RA_OF_ASC_NODE": 255.7738, "ARG_OF_PERICENTER": 127.6207, "MEAN_ANOMALY": 48.46, "EPHEMERIS_TYPE": 0, "CLASSIFICATION_TYPE": "U", "NORAD_CAT_ID": 35015, "ELEMENT_SET_NO": 999, "REV_AT_EPOCH": 65278, "BSTAR": 0.00081419309, "MEAN_MOTION_DOT": 3.023e-05, "MEAN_MOTION_DDOT": 0}, "tle": {"line1": "1 35015U 93036AGC 25335.53430325  .00003023  00000+0  81419-3 0  9991", "line2": "2 35015  73.9481 255.7738 0074208 127.6207  48.4600 14.46768601652784"}}, "geometry": {"type": "Point", "coordinates": [96.60706298902699, -57.347901537982914]}}]}